NORAD_CAT_ID,OBJECT_NAME,OBJECT_TYPE,EPOCH,MEAN_MOTION,ECCENTRICITY,INCLINATION,RA_OF_ASC_NODE,ARG_OF_PERICENTER,MEAN_ANOMALY,BSTAR,MEAN_MOTION_DOT,MEAN_MOTION_DDOT,TLE_LINE0,TLE_LINE1,TLE_LINE2,SEMIMAJOR_AXIS,PERIOD,APOGEE,PERIGEE,DECAYED
53017.0,STARLINK-4281,PAYLOAD,2024-07-07 08:19:35,15.08831993,0.0001305,53.2178,304.059,84.9801,275.134,0.00011706,1.575e-05,0.0,0 STARLINK-4281,1 53017U 22076AH  24189.34693670  .00001575  00000-0  11706-3 0  9991,2 53017  53.2178 304.0590 0001305  84.9801 275.1340 15.08831993111310,6917.905,95.438,540.673,538.867,0.0
53017.0,STARLINK-4281,PAYLOAD,2024-07-08 12:56:31,15.08837327,0.0001311,53.2183,298.703,101.4296,258.6843,0.00014953,2.093e-05,0.0,0 STARLINK-4281,1 53017U 22076AH  24190.53925544  .00002093  00000-0  14953-3 0  9995,2 53017  53.2183 298.7030 0001311 101.4296 258.6843 15.08837327111494,6917.889,95.438,540.66,538.847,0.0
53017.0,STARLINK-4281,PAYLOAD,2024-07-08 14:31:54,15.08839361,0.0001076,53.2171,298.4059,90.5289,269.5827,0.00016684,2.368e-05,0.0,0 STARLINK-4281,1 53017U 22076AH  24190.60549451  .00002368  00000-0  16684-3 0  9990,2 53017  53.2171 298.4059 0001076  90.5289 269.5827 15.08839361111041,6917.882,95.438,540.492,539.003,0.0
53017.0,STARLINK-4281,PAYLOAD,2024-07-09 00:04:12,15.08851714,0.000113,53.2175,296.6206,84.4711,275.641,0.00025493,3.773e-05,0.0,0 STARLINK-4281,1 53017U 22076AH  24191.00292741  .00003773  00000-0  25493-3 0  9991,2 53017  53.2175 296.6206 0001130  84.4711 275.6410 15.08851714111561,6917.845,95.437,540.491,538.928,0.0
53017.0,STARLINK-4281,PAYLOAD,2024-07-09 12:47:18,15.08835507,0.0001293,53.2169,294.241,89.3285,270.7855,-3.0848e-06,-3.37e-06,0.0,0 STARLINK-4281,1 53017U 22076AH  24191.53285652 -.00000337  00000-0 -30848-5 0  9999,2 53017  53.2169 294.2410 0001293  89.3285 270.7855 15.08835507111645,6917.894,95.438,540.654,538.865,0.0
53017.0,STARLINK-4281,PAYLOAD,2024-07-09 14:22:41,15.08838558,0.0001275,53.217,293.9441,84.892,275.2218,4.8116e-05,4.78e-06,0.0,0 STARLINK-4281,1 53017U 22076AH  24191.59909532  .00000478  00000-0  48116-4 0  9995,2 53017  53.2170 293.9441 0001275  84.8920 275.2218 15.08838558111195,6917.885,95.438,540.632,538.868,0.0
53017.0,STARLINK-4281,PAYLOAD,2024-07-09 23:54:59,15.08852897,0.0001542,53.2179,292.1582,66.9533,293.1621,0.00015117,2.12e-05,0.0,0 STARLINK-4281,1 53017U 22076AH  24191.99652776  .00002120  00000-0  15117-3 0  9994,2 53017  53.2179 292.1582 0001542  66.9533 293.1621 15.08852897111716,6917.841,95.437,540.773,538.639,0.0
53017.0,STARLINK-4281,PAYLOAD,2024-07-10 12:38:05,15.08834345,7.83e-05,53.2175,289.7803,79.7559,280.3521,-7.4573e-05,-1.474e-05,0.0,0 STARLINK-4281,1 53017U 22076AH  24192.52645569 -.00001474  00000-0 -74573-4 0  9991,2 53017  53.2175 289.7803 0000783  79.7559 280.3521 15.08834345111799,6917.898,95.438,540.304,539.221,0.0
53017.0,STARLINK-4281,PAYLOAD,2024-07-10 15:48:51,15.08842093,0.000105,53.2154,289.1852,80.3416,279.7695,8.3642e-05,1.044e-05,0.0,0 STARLINK-4281,1 53017U 22076AH  24192.65893154  .00001044  00000-0  83642-4 0  9998,2 53017  53.2154 289.1852 0001050  80.3416 279.7695 15.08842093111818,6917.874,95.437,540.465,539.013,0.0
53017.0,STARLINK-4281,PAYLOAD,2024-07-11 12:28:52,15.08845117,0.0001246,53.2136,285.3221,79.3058,280.8074,0.00028437,4.241e-05,0.0,0 STARLINK-4281,1 53017U 22076AH  24193.52005410  .00004241  00000-0  28437-3 0  9997,2 53017  53.2136 285.3221 0001246  79.3058 280.8074 15.08845117111480,6917.865,95.437,540.592,538.868,0.0
53017.0,STARLINK-4281,PAYLOAD,2024-07-11 15:39:39,15.08842745,0.0001321,53.215,284.7292,77.4456,282.6683,0.00023911,3.52e-05,0.0,0 STARLINK-4281,1 53017U 22076AH  24193.65253554  .00003520  00000-0  23911-3 0  9996,2 53017  53.2150 284.7292 0001321  77.4456 282.6683 15.08842745111505,6917.872,95.437,540.651,538.823,0.0
53017.0,STARLINK-4281,PAYLOAD,2024-07-12 12:19:40,15.08838122,0.0001529,53.2171,280.8627,92.5106,267.6061,0.00010282,1.349e-05,0.0,0 STARLINK-4281,1 53017U 22076AH  24194.51365926  .00001349  00000-0  10282-3 0  9993,2 53017  53.2171 280.8627 0001529  92.5106 267.6061 15.08838122112099,6917.886,95.438,540.809,538.693,0.0
53017.0,STARLINK-4281,PAYLOAD,2024-07-13 12:10:27,15.08841809,0.0001471,53.2175,276.4017,96.098,264.0179,9.7291e-05,1.261e-05,0.0,0 STARLINK-4281,1 53017U 22076AH  24195.50725809  .00001261  00000-0  97291-4 0  9992,2 53017  53.2175 276.4017 0001471  96.0980 264.0179 15.08841809111784,6917.875,95.437,540.757,538.722,0.0
53017.0,STARLINK-4281,PAYLOAD,2024-07-13 15:21:13,15.08843723,0.0001394,53.2173,275.8064,99.2781,260.8368,0.0001155,1.551e-05,0.0,0 STARLINK-4281,1 53017U 22076AH  24195.63973673  .00001551  00000-0  11550-3 0  9995,2 53017  53.2173 275.8064 0001394  99.2781 260.8368 15.08843723112260,6917.869,95.437,540.698,538.77,0.0
53017.0,STARLINK-4281,PAYLOAD,2024-07-14 12:01:14,15.08843156,0.0001219,53.2159,271.9389,88.8047,271.3085,0.0001167,1.57e-05,0.0,0 STARLINK-4281,1 53017U 22076AH  24196.50085693  .00001570  00000-0  11670-3 0  9992,2 53017  53.2159 271.9389 0001219  88.8047 271.3085 15.08843156111932,6917.871,95.437,540.579,538.892,0.0
53017.0,STARLINK-4281,PAYLOAD,2024-07-14 21:33:32,15.08855574,0.0001269,53.2164,270.1545,90.5622,269.5515,0.00026865,3.992e-05,0.0,0 STARLINK-4281,1 53017U 22076AH  24196.89828881  .00003992  00000-0  26865-3 0  9990,2 53017  53.2164 270.1545 0001269  90.5622 269.5515 15.08855574112459,6917.833,95.437,540.576,538.82,0.0
53017.0,STARLINK-4281,PAYLOAD,2024-07-15 11:52:01,15.08837808,0.0001332,53.2156,267.4808,87.4614,272.6531,1.6498e-05,-2.5e-07,0.0,0 STARLINK-4281,1 53017U 22076AH  24197.49445808 -.00000025  00000-0  16498-4 0  9998,2 53017  53.2156 267.4808 0001332  87.4614 272.6531 15.08837808112541,6917.887,95.438,540.674,538.831,0.0
53017.0,STARLINK-4281,PAYLOAD,2024-07-15 21:24:19,15.0885071,0.0001391,53.2164,265.6968,91.182,268.9331,0.00014838,2.075e-05,0.0,0 STARLINK-4281,1 53017U 22076AH  24197.89189014  .00002075  00000-0  14838-3 0  9997,2 53017  53.2164 265.6968 0001391  91.1820 268.9331 15.08850710112142,6917.848,95.437,540.675,538.75,0.0
53017.0,STARLINK-4281,PAYLOAD,2024-07-16 11:42:48,15.08836681,0.0001445,53.2165,263.0219,96.366,263.7497,7.3306e-06,-1.71e-06,0.0,0 STARLINK-4281,1 53017U 22076AH  24198.48805818 -.00000171  00000-0  73306-5 0  9993,2 53017  53.2165 263.0219 0001445  96.3660 263.7497 15.08836681112230,6917.891,95.438,540.755,538.756,0.0
53017.0,STARLINK-4281,PAYLOAD,2024-07-17 11:33:35,15.08839032,0.0001314,53.2157,258.5607,93.4876,266.6267,0.00024424,3.601e-05,0.0,0 STARLINK-4281,1 53017U 22076AH  24199.48166317  .00003601  00000-0  24424-3 0  9993,2 53017  53.2157 258.5607 0001314  93.4876 266.6267 15.08839032112840,6917.883,95.438,540.657,538.839,0.0
53017.0,STARLINK-4281,PAYLOAD,2024-07-18 03:27:27,15.08836699,0.0001236,53.2145,255.5855,91.8328,268.2805,0.00027876,4.151e-05,0.0,0 STARLINK-4281,1 53017U 22076AH  24200.14406751  .00004151  00000-0  27876-3 0  9993,2 53017  53.2145 255.5855 0001236  91.8328 268.2805 15.08836699112949,6917.89,95.438,540.611,538.9,0.0
53017.0,STARLINK-4281,PAYLOAD,2024-07-18 11:24:23,15.08841402,0.0001278,53.2148,254.0988,92.7097,267.4042,0.00025765,3.815e-05,0.0,0 STARLINK-4281,1 53017U 22076AH  24200.47526683  .00003815  00000-0  25765-3 0  9997,2 53017  53.2148 254.0988 0001278  92.7097 267.4042 15.08841402112539,6917.876,95.437,540.625,538.857,0.0
53017.0,STARLINK-4281,PAYLOAD,2024-07-19 09:39:46,15.08845652,0.0001329,53.2148,249.9354,93.2151,266.8993,0.00029484,4.408e-05,0.0,0 STARLINK-4281,1 53017U 22076AH  24201.40262658  .00004408  00000-0  29484-3 0  9991,2 53017  53.2148 249.9354 0001329  93.2151 266.8993 15.08845652113139,6917.863,95.437,540.647,538.809,0.0
53017.0,STARLINK-4281,PAYLOAD,2024-07-19 20:47:28,15.08851088,0.0001328,53.2145,247.8535,91.1894,268.925,0.00031541,4.737e-05,0.0,0 STARLINK-4281,1 53017U 22076AH  24201.86630270  .00004737  00000-0  31541-3 0  9992,2 53017  53.2145 247.8535 0001328  91.1894 268.9250 15.08851088112749,6917.846,95.437,540.63,538.793,0.0
53017.0,STARLINK-4281,PAYLOAD,2024-07-20 09:30:33,15.08843449,0.0001465,53.2153,245.4758,89.7013,270.4147,8.8236e-05,1.117e-05,0.0,0 STARLINK-4281,1 53017U 22076AH  24202.39622439  .00001117  00000-0  88236-4 0  9992,2 53017  53.2153 245.4758 0001465  89.7013 270.4147 15.08843449113282,6917.87,95.437,540.748,538.721,0.0
53017.0,STARLINK-4281,PAYLOAD,2024-07-21 09:21:21,15.08838746,0.0001406,53.2164,241.0135,93.2112,266.9041,1.0422e-05,-1.22e-06,0.0,0 STARLINK-4281,1 53017U 22076AH  24203.38982695 -.00000122  00000-0  10422-4 0  9993,2 53017  53.2164 241.0135 0001406  93.2112 266.9041 15.08838746113434,6917.884,95.438,540.722,538.777,0.0
53017.0,STARLINK-4281,PAYLOAD,2024-07-22 07:36:45,15.08834149,0.0001362,53.2163,236.8501,88.5039,271.6109,3.5316e-05,2.74e-06,0.0,0 STARLINK-4281,1 53017U 22076AH  24204.31718994  .00000274  00000-0  35316-4 0  9992,2 53017  53.2163 236.8501 0001362  88.5039 271.6109 15.08834149113114,6917.898,95.438,540.705,538.821,0.0
53017.0,STARLINK-4281,PAYLOAD,2024-07-23 09:02:54,15.08840934,0.0001252,53.2155,232.0931,93.8328,266.2808,0.00014664,2.047e-05,0.0,0 STARLINK-4281,1 53017U 22076AH  24205.37702518  .00002047  00000-0  14664-3 0  9996,2 53017  53.2155 232.0931 0001252  93.8328 266.2808 15.08840934113731,6917.878,95.437,540.609,538.876,0.0
53017.0,STARLINK-4281,PAYLOAD,2024-07-24 10:29:05,15.08833588,0.0001277,53.2151,227.3345,93.4521,266.6617,6.7085e-05,7.8e-06,0.0,0 STARLINK-4281,1 53017U 22076AH  24206.43687448  .00000780  00000-0  67085-4 0  9996,2 53017  53.2151 227.3345 0001277  93.4521 266.6617 15.08833588113897,6917.9,95.438,540.648,538.882,0.0
53017.0,STARLINK-4281,PAYLOAD,2024-07-25 05:33:43,15.08839292,0.0001271,53.2149,223.7658,90.4064,269.7073,4.8599e-05,4.86e-06,0.0,0 STARLINK-4281,1 53017U 22076AH  24207.23175290  .00000486  00000-0  48599-4 0  9994,2 53017  53.2149 223.7658 0001271  90.4064 269.7073 15.08839292113555,6917.883,95.438,540.627,538.868,0.0
